[{"OBJECT_NAME":"STARLINK-33570","OBJECT_ID":"2025-015U","EPOCH":"2026-03-09T22:47:22.626816","MEAN_MOTION":15.30202304,"ECCENTRICITY":0.00011062,"INCLINATION":53.1613,"RA_OF_ASC_NODE":321.0522,"ARG_OF_PERICENTER":124.8392,"MEAN_ANOMALY":235.2713,"EPHEMERIS_TYPE":0,"CLASSIFICATION_TYPE":"U","NORAD_CAT_ID":62776,"ELEMENT_SET_NO":999,"REV_AT_EPOCH":6446,"BSTAR":0.00057479824,"MEAN_MOTION_DOT":0.00016704,"MEAN_MOTION_DDOT":0},{"OBJECT_NAME":"SL-3 R\/B","OBJECT_ID":"1981-065B","EPOCH":"2026-03-09T21:58:16.284000","MEAN_MOTION":15.33300883,"ECCENTRICITY":0.00117648,"INCLINATION":97.6337,"RA_OF_ASC_NODE":111.1786,"ARG_OF_PERICENTER":10.529,"MEAN_ANOMALY":349.6196,"EPHEMERIS_TYPE":0,"CLASSIFICATION_TYPE":"U","NORAD_CAT_ID":12586,"ELEMENT_SET_NO":999,"REV_AT_EPOCH":43499,"BSTAR":0.00030084921,"MEAN_MOTION_DOT":9.62e-5,"MEAN_MOTION_DDOT":0}]
